STARLINK-32592          
1 62035U 24216D   26068.90500208  .00027338  00000+0  99861-3 0  9995
2 62035  43.0007 262.4547 0001775 283.7388  76.3266 15.27601841 73837
AL MUNTHER              
1 63240U 25052AG  26068.64540749  .00017933  00000+0  65015-3 0  9992
2 63240  97.4001 323.9152 0008027 130.7043 229.4895 15.28381521 54798
